{
  "type": "FeatureCollection",
  "features": [
    {
      "type": "Feature",
      "properties": {
        "norad_id": 44231,
        "name": "BEIDOU-2 G8 (C01)",
        "group": "gnss",
        "lat": 1.399832419842527,
        "lon": 129.34480081902916,
        "alt_km": 35817.65898349457,
        "timestamp": "2025-12-27T16:33:30.466900+00:00",
        "meta_object_name": "BEIDOU-2 G8 (C01)",
        "meta_object_id": "2019-027A",
        "meta_epoch": "2025-12-27T13:02:38.745600",
        "meta_mean_motion": 1.00273438,
        "meta_eccentricity": 0.0008371,
        "meta_inclination": 1.6971,
        "meta_ra_of_asc_node": 74.745,
        "meta_arg_of_pericenter": 258.6879,
        "meta_mean_anomaly": 103.0306,
        "meta_ephemeris_type": 0,
        "meta_classification_type": "U",
        "meta_norad_cat_id": 44231,
        "meta_element_set_no": 999,
        "meta_rev_at_epoch": 2436,
        "meta_bstar": 0,
        "meta_mean_motion_dot": -2.25e-06,
        "meta_mean_motion_ddot": 0,
        "tle_line1": "1 44231U 19027A   25361.54350400 -.00000225  00000+0  00000+0 0  9999",
        "tle_line2": "2 44231   1.6971  74.7450 0008371 258.6879 103.0306  1.00273438 24367"
      },
      "geometry": {
        "type": "Point",
        "coordinates": [
          129.34480081902916,
          1.399832419842527
        ]
      }
    },
    {
      "type": "Feature",
      "properties": {
        "norad_id": 44299,
        "name": "COSMOS 2534 (758)",
        "group": "gnss",
        "lat": -25.036203838619873,
        "lon": -174.57178219424463,
        "alt_km": 19118.753305721126,
        "timestamp": "2025-12-27T16:33:30.466911+00:00",
        "meta_object_name": "COSMOS 2534 (758)",
        "meta_object_id": "2019-030A",
        "meta_epoch": "2025-12-27T11:49:04.620576",
        "meta_mean_motion": 2.13102152,
        "meta_eccentricity": 0.0008619,
        "meta_inclination": 64.3665,
        "meta_ra_of_asc_node": 198.3955,
        "meta_arg_of_pericenter": 283.8926,
        "meta_mean_anomaly": 256.5547,
        "meta_ephemeris_type": 0,
        "meta_classification_type": "U",
        "meta_norad_cat_id": 44299,
        "meta_element_set_no": 999,
        "meta_rev_at_epoch": 5126,
        "meta_bstar": 0,
        "meta_mean_motion_dot": 1.23e-06,
        "meta_mean_motion_ddot": 0,
        "tle_line1": "1 44299U 19030A   25361.49241459  .00000123  00000+0  00000+0 0  9990",
        "tle_line2": "2 44299  64.3665 198.3955 0008619 283.8926 256.5547  2.13102152 51267"
      },
      "geometry": {
        "type": "Point",
        "coordinates": [
          -174.57178219424463,
          -25.036203838619873
        ]
      }
    },
    {
      "type": "Feature",
      "properties": {
        "norad_id": 44337,
        "name": "BEIDOU-3 IGSO-2 (C39)",
        "group": "gnss",
        "lat": -42.80516882080394,
        "lon": 120.27439238895141,
        "alt_km": 35824.41565436261,
        "timestamp": "2025-12-27T16:33:30.466925+00:00",
        "meta_object_name": "BEIDOU-3 IGSO-2 (C39)",
        "meta_object_id": "2019-035A",
        "meta_epoch": "2025-12-26T08:27:52.331328",
        "meta_mean_motion": 1.00266958,
        "meta_eccentricity": 0.0037903,
        "meta_inclination": 55.2292,
        "meta_ra_of_asc_node": 160.3818,
        "meta_arg_of_pericenter": 202.693,
        "meta_mean_anomaly": 338.2763,
        "meta_ephemeris_type": 0,
        "meta_classification_type": "U",
        "meta_norad_cat_id": 44337,
        "meta_element_set_no": 999,
        "meta_rev_at_epoch": 2393,
        "meta_bstar": 0,
        "meta_mean_motion_dot": -6e-07,
        "meta_mean_motion_ddot": 0,
        "tle_line1": "1 44337U 19035A   25360.35268902 -.00000060  00000+0  00000+0 0  9995",
        "tle_line2": "2 44337  55.2292 160.3818 0037903 202.6930 338.2763  1.00266958 23935"
      },
      "geometry": {
        "type": "Point",
        "coordinates": [
          120.27439238895141,
          -42.80516882080394
        ]
      }
    },
    {
      "type": "Feature",
      "properties": {
        "norad_id": 44506,
        "name": "GPS BIII-2  (PRN 18)",
        "group": "gnss",
        "lat": 28.363099752691433,
        "lon": -0.44918160542350644,
        "alt_km": 20325.405000224204,
        "timestamp": "2025-12-27T16:33:30.466937+00:00",
        "meta_object_name": "GPS BIII-2  (PRN 18)",
        "meta_object_id": "2019-056A",
        "meta_epoch": "2025-12-27T04:57:07.509024",
        "meta_mean_motion": 2.00566436,
        "meta_eccentricity": 0.0057783,
        "meta_inclination": 55.7159,
        "meta_ra_of_asc_node": 337.979,
        "meta_arg_of_pericenter": 198.6912,
        "meta_mean_anomaly": 207.4139,
        "meta_ephemeris_type": 0,
        "meta_classification_type": "U",
        "meta_norad_cat_id": 44506,
        "meta_element_set_no": 999,
        "meta_rev_at_epoch": 4662,
        "meta_bstar": 0,
        "meta_mean_motion_dot": -6e-07,
        "meta_mean_motion_ddot": 0,
        "tle_line1": "1 44506U 19056A   25361.20633691 -.00000060  00000+0  00000+0 0  9992",
        "tle_line2": "2 44506  55.7159 337.9790 0057783 198.6912 207.4139  2.00566436 46623"
      },
      "geometry": {
        "type": "Point",
        "coordinates": [
          -0.44918160542350644,
          28.363099752691433
        ]
      }
    },
    {
      "type": "Feature",
      "properties": {
        "norad_id": 44542,
        "name": "BEIDOU-3 M24 (C46)",
        "group": "gnss",
        "lat": -2.6584303761933668,
        "lon": 10.420838271305062,
        "alt_km": 21553.36485185228,
        "timestamp": "2025-12-27T16:33:30.466949+00:00",
        "meta_object_name": "BEIDOU-3 M24 (C46)",
        "meta_object_id": "2019-061A",
        "meta_epoch": "2025-12-25T19:20:31.720416",
        "meta_mean_motion": 1.86229328,
        "meta_eccentricity": 0.00095592,
        "meta_inclination": 54.4007,
        "meta_ra_of_asc_node": 188.5751,
        "meta_arg_of_pericenter": 26.2339,
        "meta_mean_anomaly": 333.8493,
        "meta_ephemeris_type": 0,
        "meta_classification_type": "U",
        "meta_norad_cat_id": 44542,
        "meta_element_set_no": 999,
        "meta_rev_at_epoch": 4256,
        "meta_bstar": 0,
        "meta_mean_motion_dot": 1.16e-06,
        "meta_mean_motion_ddot": 0,
        "tle_line1": "1 44542U 19061A   25359.80592269  .00000116  00000+0  00000+0 0  9997",
        "tle_line2": "2 44542  54.4007 188.5751 0009559  26.2339 333.8493  1.86229328 42560"
      },
      "geometry": {
        "type": "Point",
        "coordinates": [
          10.420838271305062,
          -2.6584303761933668
        ]
      }
    },
    {
      "type": "Feature",
      "properties": {
        "norad_id": 44543,
        "name": "BEIDOU-3 M23 (C45)",
        "group": "gnss",
        "lat": 53.94585121897011,
        "lon": -71.39266405502907,
        "alt_km": 21516.433482781595,
        "timestamp": "2025-12-27T16:33:30.466967+00:00",
        "meta_object_name": "BEIDOU-3 M23 (C45)",
        "meta_object_id": "2019-061B",
        "meta_epoch": "2025-12-26T11:37:48.857664",
        "meta_mean_motion": 1.86227559,
        "meta_eccentricity": 0.0005976,
        "meta_inclination": 54.3995,
        "meta_ra_of_asc_node": 188.5205,
        "meta_arg_of_pericenter": 25.6827,
        "meta_mean_anomaly": 342.0898,
        "meta_ephemeris_type": 0,
        "meta_classification_type": "U",
        "meta_norad_cat_id": 44543,
        "meta_element_set_no": 999,
        "meta_rev_at_epoch": 4258,
        "meta_bstar": 0,
        "meta_mean_motion_dot": 1.22e-06,
        "meta_mean_motion_ddot": 0,
        "tle_line1": "1 44543U 19061B   25360.48459326  .00000122  00000+0  00000+0 0  9997",
        "tle_line2": "2 44543  54.3995 188.5205 0005976  25.6827 342.0898  1.86227559 42581"
      },
      "geometry": {
        "type": "Point",
        "coordinates": [
          -71.39266405502907,
          53.94585121897011
        ]
      }
    },
    {
      "type": "Feature",
      "properties": {
        "norad_id": 44624,
        "name": "EUTELSAT 5 WEST B (EGNOS/PRN 121)",
        "group": "gnss",
        "lat": -0.01679406921964622,
        "lon": -20.180897671259707,
        "alt_km": 35780.40774437412,
        "timestamp": "2025-12-27T16:33:30.466979+00:00",
        "meta_object_name": "EUTELSAT 5 WEST B (EGNOS/PRN 121)",
        "meta_object_id": "2019-067A",
        "meta_epoch": "2025-12-27T04:42:38.440800",
        "meta_mean_motion": 1.00271215,
        "meta_eccentricity": 0.0003275,
        "meta_inclination": 0.0618,
        "meta_ra_of_asc_node": 348.7107,
        "meta_arg_of_pericenter": 285.9376,
        "meta_mean_anomaly": 246.9417,
        "meta_ephemeris_type": 0,
        "meta_classification_type": "U",
        "meta_norad_cat_id": 44624,
        "meta_element_set_no": 999,
        "meta_rev_at_epoch": 2271,
        "meta_bstar": 0,
        "meta_mean_motion_dot": -2e-07,
        "meta_mean_motion_ddot": 0,
        "tle_line1": "1 44624U 19067A   25361.19627825 -.00000020  00000+0  00000+0 0  9991",
        "tle_line2": "2 44624   0.0618 348.7107 0003275 285.9376 246.9417  1.00271215 22718"
      },
      "geometry": {
        "type": "Point",
        "coordinates": [
          -20.180897671259707,
          -0.01679406921964622
        ]
      }
    }
  ]
}